CCSDS_OMM_VERS = 2.0
CREATION_DATE  = 
ORIGINATOR     = 

OBJECT_NAME    = H-2A R/B
OBJECT_ID      = 2012-025E
CENTER_NAME    = EARTH
REF_FRAME      = TEME
TIME_SYSTEM    = UTC
MEAN_ELEMENT_THEORY = SGP/SGP4

EPOCH          = 2025-11-14T07:33:42.957792
MEAN_MOTION    = 14.94165859
ECCENTRICITY   = .00449177
INCLINATION    = 98.4548
RA_OF_ASC_NODE = 271.3673
ARG_OF_PERICENTER = 332.0384
MEAN_ANOMALY   = 27.8421

EPHEMERIS_TYPE = 0
CLASSIFICATION_TYPE = U
NORAD_CAT_ID   = 38341
ELEMENT_SET_NO = 999
REV_AT_EPOCH   = 73098
BSTAR          = .52874064E-3
MEAN_MOTION_DOT = .5706E-4
MEAN_MOTION_DDOT = 0

CCSDS_OMM_VERS = 2.0
CREATION_DATE  = 
ORIGINATOR     = 

OBJECT_NAME    = SHIJIAN-16 (SJ-16)
OBJECT_ID      = 2013-057A
CENTER_NAME    = EARTH
REF_FRAME      = TEME
TIME_SYSTEM    = UTC
MEAN_ELEMENT_THEORY = SGP/SGP4

EPOCH          = 2025-11-14T07:17:42.741888
MEAN_MOTION    = 14.91856303
ECCENTRICITY   = .00164655
INCLINATION    = 74.9746
RA_OF_ASC_NODE = 43.4511
ARG_OF_PERICENTER = 28.6026
MEAN_ANOMALY   = 331.6062

EPHEMERIS_TYPE = 0
CLASSIFICATION_TYPE = U
NORAD_CAT_ID   = 39358
ELEMENT_SET_NO = 999
REV_AT_EPOCH   = 65429
BSTAR          = .3915976E-3
MEAN_MOTION_DOT = .3939E-4
MEAN_MOTION_DDOT = 0

CCSDS_OMM_VERS = 2.0
CREATION_DATE  = 
ORIGINATOR     = 

OBJECT_NAME    = SL-4 R/B
OBJECT_ID      = 2014-021B
CENTER_NAME    = EARTH
REF_FRAME      = TEME
TIME_SYSTEM    = UTC
MEAN_ELEMENT_THEORY = SGP/SGP4

EPOCH          = 2025-11-13T23:47:49.195104
MEAN_MOTION    = 15.35667085
ECCENTRICITY   = .01039024
INCLINATION    = 51.6059
RA_OF_ASC_NODE = 180.2025
ARG_OF_PERICENTER = 42.7740
MEAN_ANOMALY   = 318.1269

EPHEMERIS_TYPE = 0
CLASSIFICATION_TYPE = U
NORAD_CAT_ID   = 39679
ELEMENT_SET_NO = 999
REV_AT_EPOCH   = 63847
BSTAR          = .66949569E-3
MEAN_MOTION_DOT = .27897E-3
MEAN_MOTION_DDOT = 0

CCSDS_OMM_VERS = 2.0
CREATION_DATE  = 
ORIGINATOR     = 

OBJECT_NAME    = ALOS-2
OBJECT_ID      = 2014-029A
CENTER_NAME    = EARTH
REF_FRAME      = TEME
TIME_SYSTEM    = UTC
MEAN_ELEMENT_THEORY = SGP/SGP4

EPOCH          = 2025-11-14T12:57:46.905408
MEAN_MOTION    = 14.79453746
ECCENTRICITY   = .000145
INCLINATION    = 97.9231
RA_OF_ASC_NODE = 53.7869
ARG_OF_PERICENTER = 100.8214
MEAN_ANOMALY   = 259.3161

EPHEMERIS_TYPE = 0
CLASSIFICATION_TYPE = U
NORAD_CAT_ID   = 39766
ELEMENT_SET_NO = 999
REV_AT_EPOCH   = 61984
BSTAR          = .47355E-3
MEAN_MOTION_DOT = .3485E-4
MEAN_MOTION_DDOT = 0

CCSDS_OMM_VERS = 2.0
CREATION_DATE  = 
ORIGINATOR     = 

OBJECT_NAME    = YAOGAN-29
OBJECT_ID      = 2015-069A
CENTER_NAME    = EARTH
REF_FRAME      = TEME
TIME_SYSTEM    = UTC
MEAN_ELEMENT_THEORY = SGP/SGP4

EPOCH          = 2025-11-14T08:15:01.103328
MEAN_MOTION    = 14.82836764
ECCENTRICITY   = .00020804
INCLINATION    = 98.0249
RA_OF_ASC_NODE = 341.4202
ARG_OF_PERICENTER = 45.3030
MEAN_ANOMALY   = 314.8352

EPHEMERIS_TYPE = 0
CLASSIFICATION_TYPE = U
NORAD_CAT_ID   = 41038
ELEMENT_SET_NO = 999
REV_AT_EPOCH   = 53878
BSTAR          = .13782436E-3
MEAN_MOTION_DOT = .1061E-4
MEAN_MOTION_DDOT = 0

CCSDS_OMM_VERS = 2.0
CREATION_DATE  = 
ORIGINATOR     = 

OBJECT_NAME    = ASTRO-H (HITOMI)
OBJECT_ID      = 2016-012A
CENTER_NAME    = EARTH
REF_FRAME      = TEME
TIME_SYSTEM    = UTC
MEAN_ELEMENT_THEORY = SGP/SGP4

EPOCH          = 2025-11-14T07:37:02.948736
MEAN_MOTION    = 15.09106386
ECCENTRICITY   = .00099093
INCLINATION    = 31.0012
RA_OF_ASC_NODE = 20.5645
ARG_OF_PERICENTER = 251.8456
MEAN_ANOMALY   = 108.1103

EPHEMERIS_TYPE = 0
CLASSIFICATION_TYPE = U
NORAD_CAT_ID   = 41337
ELEMENT_SET_NO = 999
REV_AT_EPOCH   = 53478
BSTAR          = .30067849E-3
MEAN_MOTION_DOT = .4984E-4
MEAN_MOTION_DDOT = 0

CCSDS_OMM_VERS = 2.0
CREATION_DATE  = 
ORIGINATOR     = 

OBJECT_NAME    = HXMT (HUIYAN)
OBJECT_ID      = 2017-034A
CENTER_NAME    = EARTH
REF_FRAME      = TEME
TIME_SYSTEM    = UTC
MEAN_ELEMENT_THEORY = SGP/SGP4

EPOCH          = 2025-11-14T07:53:27.862944
MEAN_MOTION    = 15.15821291
ECCENTRICITY   = .00338034
INCLINATION    = 43.0145
RA_OF_ASC_NODE = 297.2409
ARG_OF_PERICENTER = 227.3853
MEAN_ANOMALY   = 132.4142

EPHEMERIS_TYPE = 0
CLASSIFICATION_TYPE = U
NORAD_CAT_ID   = 42758
ELEMENT_SET_NO = 999
REV_AT_EPOCH   = 46502
BSTAR          = .51297589E-3
MEAN_MOTION_DOT = .9899E-4
MEAN_MOTION_DDOT = 0

CCSDS_OMM_VERS = 2.0
CREATION_DATE  = 
ORIGINATOR     = 

OBJECT_NAME    = CZ-2C R/B
OBJECT_ID      = 2018-054D
CENTER_NAME    = EARTH
REF_FRAME      = TEME
TIME_SYSTEM    = UTC
MEAN_ELEMENT_THEORY = SGP/SGP4

EPOCH          = 2025-11-14T06:19:24.939840
MEAN_MOTION    = 15.67986954
ECCENTRICITY   = .00239125
INCLINATION    = 35.1368
RA_OF_ASC_NODE = 13.0811
ARG_OF_PERICENTER = 225.2247
MEAN_ANOMALY   = 134.6539

EPHEMERIS_TYPE = 0
CLASSIFICATION_TYPE = U
NORAD_CAT_ID   = 43521
ELEMENT_SET_NO = 999
REV_AT_EPOCH   = 41057
BSTAR          = .76604152E-3
MEAN_MOTION_DOT = .90209E-3
MEAN_MOTION_DDOT = 0

CCSDS_OMM_VERS = 2.0
CREATION_DATE  = 
ORIGINATOR     = 

OBJECT_NAME    = SAOCOM 1A
OBJECT_ID      = 2018-076A
CENTER_NAME    = EARTH
REF_FRAME      = TEME
TIME_SYSTEM    = UTC
MEAN_ELEMENT_THEORY = SGP/SGP4

EPOCH          = 2025-11-14T07:37:10.462080
MEAN_MOTION    = 14.82167401
ECCENTRICITY   = .00013635
INCLINATION    = 97.8862
RA_OF_ASC_NODE = 143.1520
ARG_OF_PERICENTER = 91.3286
MEAN_ANOMALY   = 268.8083

EPHEMERIS_TYPE = 0
CLASSIFICATION_TYPE = U
NORAD_CAT_ID   = 43641
ELEMENT_SET_NO = 999
REV_AT_EPOCH   = 38427
BSTAR          = .14414233E-3
MEAN_MOTION_DOT = .1096E-4
MEAN_MOTION_DDOT = 0

CCSDS_OMM_VERS = 2.0
CREATION_DATE  = 
ORIGINATOR     = 

OBJECT_NAME    = H-2A R/B
OBJECT_ID      = 2018-084L
CENTER_NAME    = EARTH
REF_FRAME      = TEME
TIME_SYSTEM    = UTC
MEAN_ELEMENT_THEORY = SGP/SGP4

EPOCH          = 2025-11-14T07:14:39.878016
MEAN_MOTION    = 15.36039951
ECCENTRICITY   = .00291608
INCLINATION    = 98.8799
RA_OF_ASC_NODE = 146.5191
ARG_OF_PERICENTER = 62.9509
MEAN_ANOMALY   = 297.4701

EPHEMERIS_TYPE = 0
CLASSIFICATION_TYPE = U
NORAD_CAT_ID   = 43682
ELEMENT_SET_NO = 999
REV_AT_EPOCH   = 38803
BSTAR          = .64097901E-3
MEAN_MOTION_DOT = .22751E-3
MEAN_MOTION_DDOT = 0

CCSDS_OMM_VERS = 2.0
CREATION_DATE  = 
ORIGINATOR     = 

OBJECT_NAME    = SAOCOM 1B
OBJECT_ID      = 2020-059A
CENTER_NAME    = EARTH
REF_FRAME      = TEME
TIME_SYSTEM    = UTC
MEAN_ELEMENT_THEORY = SGP/SGP4

EPOCH          = 2025-11-14T06:44:57.834816
MEAN_MOTION    = 14.82174645
ECCENTRICITY   = .00014822
INCLINATION    = 97.8852
RA_OF_ASC_NODE = 142.2184
ARG_OF_PERICENTER = 86.2454
MEAN_ANOMALY   = 273.8929

EPHEMERIS_TYPE = 0
CLASSIFICATION_TYPE = U
NORAD_CAT_ID   = 46265
ELEMENT_SET_NO = 999
REV_AT_EPOCH   = 28165
BSTAR          = .14676009E-3
MEAN_MOTION_DOT = .1117E-4
MEAN_MOTION_DDOT = 0

CCSDS_OMM_VERS = 2.0
CREATION_DATE  = 
ORIGINATOR     = 

OBJECT_NAME    = CSS (TIANHE)
OBJECT_ID      = 2021-035A
CENTER_NAME    = EARTH
REF_FRAME      = TEME
TIME_SYSTEM    = UTC
MEAN_ELEMENT_THEORY = SGP/SGP4

EPOCH          = 2025-11-14T00:20:46.425408
MEAN_MOTION    = 15.61166938
ECCENTRICITY   = .0003884
INCLINATION    = 41.4648
RA_OF_ASC_NODE = 191.0371
ARG_OF_PERICENTER = 22.4689
MEAN_ANOMALY   = 337.6319

EPHEMERIS_TYPE = 0
CLASSIFICATION_TYPE = U
NORAD_CAT_ID   = 48274
ELEMENT_SET_NO = 999
REV_AT_EPOCH   = 25954
BSTAR          = .36298E-3
MEAN_MOTION_DOT = .31369E-3
MEAN_MOTION_DDOT = 0

