H-2A R/B                
1 38341U 12025E   25318.31508053  .00005706  00000+0  52874-3 0  9999
2 38341  98.4548 271.3673 0044917 332.0384  27.8421 14.94165859730989
SHIJIAN-16 (SJ-16)      
1 39358U 13057A   25318.30396692  .00003939  00000+0  39160-3 0  9996
2 39358  74.9746  43.4511 0016465  28.6026 331.6062 14.91856303654298
SL-4 R/B                
1 39679U 14021B   25317.99154161  .00027897  00000+0  66950-3 0  9997
2 39679  51.6059 180.2025 0103902  42.7740 318.1269 15.35667085638473
ALOS-2                  
1 39766U 14029A   25318.54012622  .00003485  00000+0  47355-3 0  9994
2 39766  97.9231  53.7869 0001450 100.8214 259.3161 14.79453746619843
YAOGAN-29               
1 41038U 15069A   25318.34376277  .00001061  00000+0  13782-3 0  9996
2 41038  98.0249 341.4202 0002080  45.3030 314.8352 14.82836764538787
ASTRO-H (HITOMI)        
1 41337U 16012A   25318.31739524  .00004984  00000+0  30068-3 0  9995
2 41337  31.0012  20.5645 0009909 251.8456 108.1103 15.09106386534787
HXMT (HUIYAN)           
1 42758U 17034A   25318.32879471  .00009899  00000+0  51298-3 0  9993
2 42758  43.0145 297.2409 0033803 227.3853 132.4142 15.15821291465024
CZ-2C R/B               
1 43521U 18054D   25318.26348310  .00090209  00000+0  76604-3 0  9994
2 43521  35.1368  13.0811 0023912 225.2247 134.6539 15.67986954410576
SAOCOM 1A               
1 43641U 18076A   25318.31748220  .00001096  00000+0  14414-3 0  9998
2 43641  97.8862 143.1520 0001363  91.3286 268.8083 14.82167401384271
H-2A R/B                
1 43682U 18084L   25318.30185044  .00022751  00000+0  64098-3 0  9994
2 43682  98.8799 146.5191 0029160  62.9509 297.4701 15.36039951388035
SAOCOM 1B               
1 46265U 20059A   25318.28122494  .00001117  00000+0  14676-3 0  9996
2 46265  97.8852 142.2184 0001482  86.2454 273.8929 14.82174645281654
CSS (TIANHE)            
1 48274U 21035A   25318.01442622  .00031369  00000+0  36298-3 0  9998
2 48274  41.4648 191.0371 0003884  22.4689 337.6319 15.61166938259543
